CCSDS_OMM_VERS = 2.0
CREATION_DATE  = 
ORIGINATOR     = 

OBJECT_NAME    = STARLINK-35524
OBJECT_ID      = 2025-225E
CENTER_NAME    = EARTH
REF_FRAME      = TEME
TIME_SYSTEM    = UTC
MEAN_ELEMENT_THEORY = SGP/SGP4

EPOCH          = 2025-10-31T16:00:01.998720
MEAN_MOTION    = 15.55945915
ECCENTRICITY   = .0001291
INCLINATION    = 53.1600
RA_OF_ASC_NODE = 47.5453
ARG_OF_PERICENTER = 59.9877
MEAN_ANOMALY   = 98.8526

EPHEMERIS_TYPE = 0
CLASSIFICATION_TYPE = U
NORAD_CAT_ID   = 65914
ELEMENT_SET_NO = 999
REV_AT_EPOCH   = 466
BSTAR          = -.31975E-1
MEAN_MOTION_DOT = -.2020604E-1
MEAN_MOTION_DDOT = 0

CCSDS_OMM_VERS = 2.0
CREATION_DATE  = 
ORIGINATOR     = 

OBJECT_NAME    = STARLINK-35539
OBJECT_ID      = 2025-225F
CENTER_NAME    = EARTH
REF_FRAME      = TEME
TIME_SYSTEM    = UTC
MEAN_ELEMENT_THEORY = SGP/SGP4

EPOCH          = 2025-10-31T16:00:01.998720
MEAN_MOTION    = 15.45747093
ECCENTRICITY   = .0001024
INCLINATION    = 53.1597
RA_OF_ASC_NODE = 47.9215
ARG_OF_PERICENTER = 78.7671
MEAN_ANOMALY   = 253.5361

EPHEMERIS_TYPE = 0
CLASSIFICATION_TYPE = U
NORAD_CAT_ID   = 65915
ELEMENT_SET_NO = 999
REV_AT_EPOCH   = 461
BSTAR          = -.53956E-1
MEAN_MOTION_DOT = -.2364256E-1
MEAN_MOTION_DDOT = 0

CCSDS_OMM_VERS = 2.0
CREATION_DATE  = 
ORIGINATOR     = 

OBJECT_NAME    = STARLINK-35521
OBJECT_ID      = 2025-225G
CENTER_NAME    = EARTH
REF_FRAME      = TEME
TIME_SYSTEM    = UTC
MEAN_ELEMENT_THEORY = SGP/SGP4

EPOCH          = 2025-10-31T16:00:01.998720
MEAN_MOTION    = 15.55948339
ECCENTRICITY   = .0001405
INCLINATION    = 53.1603
RA_OF_ASC_NODE = 47.5368
ARG_OF_PERICENTER = 62.3759
MEAN_ANOMALY   = 100.2954

EPHEMERIS_TYPE = 0
CLASSIFICATION_TYPE = U
NORAD_CAT_ID   = 65916
ELEMENT_SET_NO = 999
REV_AT_EPOCH   = 466
BSTAR          = -.31977E-1
MEAN_MOTION_DOT = -.202095E-1
MEAN_MOTION_DDOT = 0

CCSDS_OMM_VERS = 2.0
CREATION_DATE  = 
ORIGINATOR     = 

OBJECT_NAME    = STARLINK-35478
OBJECT_ID      = 2025-225H
CENTER_NAME    = EARTH
REF_FRAME      = TEME
TIME_SYSTEM    = UTC
MEAN_ELEMENT_THEORY = SGP/SGP4

EPOCH          = 2025-10-31T16:00:01.998720
MEAN_MOTION    = 15.55954560
ECCENTRICITY   = .0001419
INCLINATION    = 53.1600
RA_OF_ASC_NODE = 47.5284
ARG_OF_PERICENTER = 60.1930
MEAN_ANOMALY   = 106.3080

EPHEMERIS_TYPE = 0
CLASSIFICATION_TYPE = U
NORAD_CAT_ID   = 65917
ELEMENT_SET_NO = 999
REV_AT_EPOCH   = 461
BSTAR          = -.32142E-1
MEAN_MOTION_DOT = -.2030695E-1
MEAN_MOTION_DDOT = 0

CCSDS_OMM_VERS = 2.0
CREATION_DATE  = 
ORIGINATOR     = 

OBJECT_NAME    = STARLINK-35516
OBJECT_ID      = 2025-225J
CENTER_NAME    = EARTH
REF_FRAME      = TEME
TIME_SYSTEM    = UTC
MEAN_ELEMENT_THEORY = SGP/SGP4

EPOCH          = 2025-10-31T16:00:01.998720
MEAN_MOTION    = 15.55948847
ECCENTRICITY   = .0001316
INCLINATION    = 53.1599
RA_OF_ASC_NODE = 47.5325
ARG_OF_PERICENTER = 61.6643
MEAN_ANOMALY   = 102.9252

EPHEMERIS_TYPE = 0
CLASSIFICATION_TYPE = U
NORAD_CAT_ID   = 65918
ELEMENT_SET_NO = 999
REV_AT_EPOCH   = 466
BSTAR          = -.32047E-1
MEAN_MOTION_DOT = -.2024881E-1
MEAN_MOTION_DDOT = 0

CCSDS_OMM_VERS = 2.0
CREATION_DATE  = 
ORIGINATOR     = 

OBJECT_NAME    = STARLINK-35519
OBJECT_ID      = 2025-225K
CENTER_NAME    = EARTH
REF_FRAME      = TEME
TIME_SYSTEM    = UTC
MEAN_ELEMENT_THEORY = SGP/SGP4

EPOCH          = 2025-10-31T16:00:01.998720
MEAN_MOTION    = 15.55949044
ECCENTRICITY   = .0001437
INCLINATION    = 53.1598
RA_OF_ASC_NODE = 47.5255
ARG_OF_PERICENTER = 65.6199
MEAN_ANOMALY   = 102.8024

EPHEMERIS_TYPE = 0
CLASSIFICATION_TYPE = U
NORAD_CAT_ID   = 65919
ELEMENT_SET_NO = 999
REV_AT_EPOCH   = 466
BSTAR          = -.32038E-1
MEAN_MOTION_DOT = -.2024476E-1
MEAN_MOTION_DDOT = 0

CCSDS_OMM_VERS = 2.0
CREATION_DATE  = 
ORIGINATOR     = 

OBJECT_NAME    = STARLINK-33902
OBJECT_ID      = 2025-225L
CENTER_NAME    = EARTH
REF_FRAME      = TEME
TIME_SYSTEM    = UTC
MEAN_ELEMENT_THEORY = SGP/SGP4

EPOCH          = 2025-10-31T16:00:01.998720
MEAN_MOTION    = 15.55952633
ECCENTRICITY   = .0001357
INCLINATION    = 53.1601
RA_OF_ASC_NODE = 47.5205
ARG_OF_PERICENTER = 63.8036
MEAN_ANOMALY   = 106.5332

EPHEMERIS_TYPE = 0
CLASSIFICATION_TYPE = U
NORAD_CAT_ID   = 65920
ELEMENT_SET_NO = 999
REV_AT_EPOCH   = 465
BSTAR          = -.32114E-1
MEAN_MOTION_DOT = -.2028935E-1
MEAN_MOTION_DDOT = 0

CCSDS_OMM_VERS = 2.0
CREATION_DATE  = 
ORIGINATOR     = 

OBJECT_NAME    = STARLINK-35530
OBJECT_ID      = 2025-225M
CENTER_NAME    = EARTH
REF_FRAME      = TEME
TIME_SYSTEM    = UTC
MEAN_ELEMENT_THEORY = SGP/SGP4

EPOCH          = 2025-10-31T16:00:01.998720
MEAN_MOTION    = 15.55949568
ECCENTRICITY   = .00014
INCLINATION    = 53.1598
RA_OF_ASC_NODE = 47.5174
ARG_OF_PERICENTER = 63.9675
MEAN_ANOMALY   = 108.2873

EPHEMERIS_TYPE = 0
CLASSIFICATION_TYPE = U
NORAD_CAT_ID   = 65921
ELEMENT_SET_NO = 999
REV_AT_EPOCH   = 461
BSTAR          = -.32012E-1
MEAN_MOTION_DOT = -.2023039E-1
MEAN_MOTION_DDOT = 0

CCSDS_OMM_VERS = 2.0
CREATION_DATE  = 
ORIGINATOR     = 

OBJECT_NAME    = STARLINK-35544
OBJECT_ID      = 2025-225N
CENTER_NAME    = EARTH
REF_FRAME      = TEME
TIME_SYSTEM    = UTC
MEAN_ELEMENT_THEORY = SGP/SGP4

EPOCH          = 2025-10-31T16:00:01.998720
MEAN_MOTION    = 15.55953099
ECCENTRICITY   = .0001436
INCLINATION    = 53.1604
RA_OF_ASC_NODE = 47.5126
ARG_OF_PERICENTER = 58.8675
MEAN_ANOMALY   = 115.3001

EPHEMERIS_TYPE = 0
CLASSIFICATION_TYPE = U
NORAD_CAT_ID   = 65922
ELEMENT_SET_NO = 999
REV_AT_EPOCH   = 466
BSTAR          = -.32063E-1
MEAN_MOTION_DOT = -.2026168E-1
MEAN_MOTION_DDOT = 0

CCSDS_OMM_VERS = 2.0
CREATION_DATE  = 
ORIGINATOR     = 

OBJECT_NAME    = STARLINK-35484
OBJECT_ID      = 2025-225P
CENTER_NAME    = EARTH
REF_FRAME      = TEME
TIME_SYSTEM    = UTC
MEAN_ELEMENT_THEORY = SGP/SGP4

EPOCH          = 2025-10-31T16:00:01.998720
MEAN_MOTION    = 15.55946277
ECCENTRICITY   = .0001455
INCLINATION    = 53.1600
RA_OF_ASC_NODE = 47.5087
ARG_OF_PERICENTER = 63.5810
MEAN_ANOMALY   = 112.5103

EPHEMERIS_TYPE = 0
CLASSIFICATION_TYPE = U
NORAD_CAT_ID   = 65923
ELEMENT_SET_NO = 999
REV_AT_EPOCH   = 466
BSTAR          = -.31971E-1
MEAN_MOTION_DOT = -.2020529E-1
MEAN_MOTION_DDOT = 0

CCSDS_OMM_VERS = 2.0
CREATION_DATE  = 
ORIGINATOR     = 

OBJECT_NAME    = STARLINK-34994
OBJECT_ID      = 2025-225Q
CENTER_NAME    = EARTH
REF_FRAME      = TEME
TIME_SYSTEM    = UTC
MEAN_ELEMENT_THEORY = SGP/SGP4

EPOCH          = 2025-10-31T16:00:01.998720
MEAN_MOTION    = 15.55945631
ECCENTRICITY   = .0001361
INCLINATION    = 53.1599
RA_OF_ASC_NODE = 47.5050
ARG_OF_PERICENTER = 61.5700
MEAN_ANOMALY   = 116.4380

EPHEMERIS_TYPE = 0
CLASSIFICATION_TYPE = U
NORAD_CAT_ID   = 65924
ELEMENT_SET_NO = 999
REV_AT_EPOCH   = 466
BSTAR          = -.31962E-1
MEAN_MOTION_DOT = -.2019869E-1
MEAN_MOTION_DDOT = 0

CCSDS_OMM_VERS = 2.0
CREATION_DATE  = 
ORIGINATOR     = 

OBJECT_NAME    = STARLINK-35458
OBJECT_ID      = 2025-225R
CENTER_NAME    = EARTH
REF_FRAME      = TEME
TIME_SYSTEM    = UTC
MEAN_ELEMENT_THEORY = SGP/SGP4

EPOCH          = 2025-10-31T16:00:01.998720
MEAN_MOTION    = 15.55950698
ECCENTRICITY   = .0001348
INCLINATION    = 53.1599
RA_OF_ASC_NODE = 47.4968
ARG_OF_PERICENTER = 66.3491
MEAN_ANOMALY   = 115.4896

EPHEMERIS_TYPE = 0
CLASSIFICATION_TYPE = U
NORAD_CAT_ID   = 65925
ELEMENT_SET_NO = 999
REV_AT_EPOCH   = 466
BSTAR          = -.32051E-1
MEAN_MOTION_DOT = -.2025244E-1
MEAN_MOTION_DDOT = 0

