STARLINK-35524          
1 65914U 25225E   25304.66668980 -.02020604  00000+0 -31975-1 0  9995
2 65914  53.1600  47.5453 0001291  59.9877  98.8526 15.55945915  4661
STARLINK-35539          
1 65915U 25225F   25304.66668980 -.02364256  00000+0 -53956-1 0  9993
2 65915  53.1597  47.9215 0001024  78.7671 253.5361 15.45747093  4610
STARLINK-35521          
1 65916U 25225G   25304.66668980 -.02020950  00000+0 -31977-1 0  9993
2 65916  53.1603  47.5368 0001405  62.3759 100.2954 15.55948339  4661
STARLINK-35478          
1 65917U 25225H   25304.66668980 -.02030695  00000+0 -32142-1 0  9996
2 65917  53.1600  47.5284 0001419  60.1930 106.3080 15.55954560  4613
STARLINK-35516          
1 65918U 25225J   25304.66668980 -.02024881  00000+0 -32047-1 0  9991
2 65918  53.1599  47.5325 0001316  61.6643 102.9252 15.55948847  4669
STARLINK-35519          
1 65919U 25225K   25304.66668980 -.02024476  00000+0 -32038-1 0  9992
2 65919  53.1598  47.5255 0001437  65.6199 102.8024 15.55949044  4661
STARLINK-33902          
1 65920U 25225L   25304.66668980 -.02028935  00000+0 -32114-1 0  9993
2 65920  53.1601  47.5205 0001357  63.8036 106.5332 15.55952633  4654
STARLINK-35530          
1 65921U 25225M   25304.66668980 -.02023039  00000+0 -32012-1 0  9991
2 65921  53.1598  47.5174 0001400  63.9675 108.2873 15.55949568  4612
STARLINK-35544          
1 65922U 25225N   25304.66668980 -.02026168  00000+0 -32063-1 0  9994
2 65922  53.1604  47.5126 0001436  58.8675 115.3001 15.55953099  4661
STARLINK-35484          
1 65923U 25225P   25304.66668980 -.02020529  00000+0 -31971-1 0  9997
2 65923  53.1600  47.5087 0001455  63.5810 112.5103 15.55946277  4661
STARLINK-34994          
1 65924U 25225Q   25304.66668980 -.02019869  00000+0 -31962-1 0  9993
2 65924  53.1599  47.5050 0001361  61.5700 116.4380 15.55945631  4664
STARLINK-35458          
1 65925U 25225R   25304.66668980 -.02025244  00000+0 -32051-1 0  9998
2 65925  53.1599  47.4968 0001348  66.3491 115.4896 15.55950698  4667
